ZHUHAI-1 02 (CAS-4B)    
1 42759U 17034B   23115.12161478  .00016317  00000+0  83209-3 0  9996
2 42759  43.0178  50.4783 0009341 125.9785 248.7286 15.16479991323583
ZHUHAI-1 01 (CAS-4A)    
1 42761U 17034D   23115.09187538  .00014151  00000+0  72192-3 0  9993
2 42761  43.0169  49.1878 0010008 124.6209 354.7742 15.16548117323587
MAX VALIER SAT          
1 42778U 17036P   23115.06414848  .00032397  00000+0  90983-3 0  9997
2 42778  97.1623 151.2341 0006144 293.9630  66.0971 15.36456747324569
RADFXSAT (FOX-1B)       
1 43017U 17073E   23114.91305559  .00010916  00000+0  77407-3 0  9995
2 43017  97.6370   1.3651 0234102 244.9520 112.7230 14.85409571293276
FOX-1D (AO-92)          
1 43137U 18004AC  23114.15688819  .00102804  00000+0  23516-2 0  9991
2 43137  97.3303 192.9063 0004652 339.0146  21.0910 15.42417666293973
DIWATA-2B               
1 43678U 18084H   23115.12063778  .00002980  00000+0  29055-3 0  9997
2 43678  98.0134 258.0532 0008911 344.0375  16.0561 14.93239368244349
ES'HAIL 2               
1 43700U 18090A   23114.35466140  .00000141  00000+0  00000+0 0  9996
2 43700   0.0166 242.3598 0001038 159.8500 323.3721  1.00271142 16143
FOX-1CLIFF (AO-95)      
1 43770U 18099N   23114.97732212  .00010028  00000+0  82460-3 0  9995
2 43770  97.5745 177.9529 0011077 309.5528  50.4716 14.99283590239634
ITASAT 1                
1 43786U 18099AE  23114.23488486  .00018603  00000+0  15324-2 0  9993
2 43786  97.5775 178.2681 0013277 303.4250  56.5703 14.99045879239567
JY1SAT (JO-97)          
1 43803U 18099AX  23113.90040168  .00008932  00000+0  71799-3 0  9990
2 43803  97.5716 177.8888 0012136 291.8212  68.1720 15.00181803239555
UWE-4                   
1 43880U 18111E   23114.19124557  .00028322  00000+0  21765-2 0  9999
2 43880  97.6419  20.2302 0016437   6.0132 354.1287 15.01578389236269
NEXUS (FO-99)           
1 43937U 19003F   23115.03951553  .00064908  00000+0  12528-2 0  9998
2 43937  97.0935 143.0932 0016526 112.0115 248.2893 15.47446836237819
JAISAT-1                
1 44419U 19038F   23114.76057887  .00075765  00000+0  27568-2 0  9991
2 44419  97.6728  94.8138 0017886 124.8774 235.4149 15.27787976210379
DUCHIFAT-3              
1 44854U 19089C   23115.11003094  .00014714  00000+0  10079-2 0  9997
2 44854  36.9640  48.3042 0011217 247.7732 197.1918 15.05405213184836
CAS-6 (TIANQIN 1)       
1 44881U 19093C   23115.10990479  .00002934  00000+0  37224-3 0  9996
2 44881  97.8614 194.4657 0013478 248.4797 111.5002 14.82411084180936
RS-44 & BREEZE-KM R/B   
1 44909U 19096E   23114.74592434  .00000027  00000+0  69679-4 0  9999
2 44909  82.5265  23.4548 0216693 312.1713  46.1160 12.79720174155376
BY70-2                  
1 45857U 20042B   23115.13943073  .00036165  00000+0  38799-2 0  9997
2 45857  97.9250 194.9372 0010643 173.9613 186.1886 14.88456664151649
SALSAT                  
1 46495U 20068K   23114.28920865  .00019990  00000+0  13248-2 0  9992
2 46495  97.7658  61.7581 0014199 307.6025  52.3912 15.07244729140959
RADFXSAT-2 (AO-109)     
1 47311U 21002C   23115.11964180  .00034486  00000+0  96140-3 0  9990
2 47311  60.6815 262.1504 0023371 147.6789 212.5741 15.36314631126130
UVSQ-SAT                
1 47438U 21006AB  23114.11071420  .00023982  00000+0  10276-2 0  9993
2 47438  97.3888 172.0456 0008642 268.5650  91.4597 15.22730213124411
DIY-1 (ARDUIQUBE)       
1 47963U 21022AH  23114.29726168  .00559949  00000+0  11462-1 0  9993
2 47963  97.5022  20.5853 0013969 121.0938 239.1682 15.43890588114234
XW-3 (CAS-9)            
1 50466U 21131B   23115.18160699  .00000990  00000+0  33618-3 0  9992
2 50466  98.5518 196.8939 0003117 306.3311  53.7588 14.38846647 69735
TEVEL-3                 
1 50988U 22002E   23115.08102843  .00034633  00000+0  14652-2 0  9992
2 50988  97.4365 182.4769 0009015  69.6367  17.8634 15.23081071 70672
TEVEL-8                 
1 50989U 22002F   23115.09315854  .00035291  00000+0  14953-2 0  9997
2 50989  97.4378 182.5432 0009272  66.6967 356.7777 15.23023553 70677
TEVEL-5                 
1 50998U 22002Q   23115.11855742  .00035705  00000+0  14767-2 0  9998
2 50998  97.4367 182.8375 0010281  63.1784  24.0818 15.23830810 70702
TEVEL-6                 
1 50999U 22002R   23115.11262086  .00035614  00000+0  14728-2 0  9998
2 50999  97.4354 182.8265 0010398  63.5299 359.1785 15.23833142 70707
TEVEL-1                 
1 51013U 22002AF  23115.08929176  .00034014  00000+0  14409-2 0  9991
2 51013  97.4360 182.4360 0009077  69.6980  17.7193 15.23039956 70677
TEVEL-7                 
1 51062U 22002CG  23115.09458661  .00035765  00000+0  15148-2 0  9997
2 51062  97.4372 182.5198 0008883  70.9022 352.0274 15.23036413 70670
TEVEL-4                 
1 51063U 22002CH  23115.09897909  .00034241  00000+0  14525-2 0  9996
2 51063  97.4378 182.5108 0009469  66.4155 356.3083 15.22989822 70671
TEVEL-2                 
1 51069U 22002CP  23114.42030299  .00024024  00000+0  10209-2 0  9992
2 51069  97.4350 181.7961 0008714  71.3813 345.4941 15.23012341 70578
GREENCUBE               
1 53106U 22080B   23108.90790059 -.00000003  00000+0  00000+0 0  9992
2 53106  70.1728 340.3248 0008244 198.7495 161.2861  6.42557220 17946
RS29S (SXC3-2110 CYCLO*)
1 53373U 22096D   23115.05002517  .00048779  00000+0  13974-2 0  9992
2 53373  97.4179  20.8533 0002591  75.6889  49.5307 15.35758531 39521
RS32S (SXC3-212 MONITO*)
1 53374U 22096E   23114.72546935  .00033438  00000+0  98016-3 0  9990
2 53374  97.4165  20.4771 0002449  63.1635  21.9154 15.35122817 39470
RS34S (SXC3-218 KUZBAS*)
1 53375U 22096F   23115.08563225  .00037003  00000+0  11342-2 0  9990
2 53375  97.4183  20.6524 0001700  65.6581  59.9732 15.33687416 39512
RS23S (SXC3-21 UTMN)    
1 53376U 22096G   23115.19461034  .00039639  00000+0  11964-2 0  9995
2 53376  97.4178  20.8187 0002172  63.4378  84.7174 15.34162947 39534
RS28S (SXC3-214 MIET-A*)
1 53377U 22096H   23114.75067911  .00030044  00000+0  92885-3 0  9996
2 53377  97.4183  20.3203 0001908  63.8464  17.1743 15.33459589 39465
RS26S (KAI-1)           
1 53378U 22096J   23115.07630611  .00029179  00000+0  93377-3 0  9990
2 53378  97.4195  20.5174 0001149  74.8522  37.2560 15.32363356 39502
RS19S (SXC3-219 ISOI)   
1 53381U 22096M   23115.05909627  .00035829  00000+0  10788-2 0  9991
2 53381  97.4164  20.8305 0001682 218.9389 265.2412 15.34262042 39528
RS21S (CUBESX-HSE-2)    
1 53383U 22096P   23115.24579021  .00038736  00000+0  11556-2 0  9999
2 53383  97.4176  21.0634 0001824 212.2711 304.5932 15.34535684 39557
RS30S (SXC3-217 SIREN)  
1 53384U 22096Q   23114.88898086  .00028229  00000+0  87451-3 0  9998
2 53384  97.4187  20.5900 0002218 228.6835 195.6579 15.33407074 39495
RS20S (GEOSCAN-EDELVEIS)
1 53385U 22096R   23115.20229169  .00049890  00000+0  13641-2 0  9992
2 53385  97.4168  21.4066 0002175 213.3837 296.3105 15.37208952 39608
RS33S (SXC3-215 VIZARD) 
1 53386U 22096S   23115.08863912  .00060131  00000+0  15063-2 0  9990
2 53386  97.4172  21.6884 0003033 209.2464 257.7834 15.39856153 39602
CAS-5A (FO-118)         
1 54684U 22167C   23115.06707726  .00021584  00000+0  12281-2 0  9997
2 54684  97.5542 253.0832 0014723 156.7950 292.5387 15.12777318 20644
